O3B PFM                 
1 39191U 13031D   22325.36509630 -.00000008  00000+0  00000+0 0  9994
2 39191   0.0575   8.5806 0002730 232.4683 118.9315  5.00115752171440
O3B FM3                 
1 40079U 14038A   22324.62034512 -.00000009  00000+0  00000+0 0  9990
2 40079   0.0500 359.4067 0004609 215.8812 144.6890  5.00115354147779
O3B FM7                 
1 40080U 14038B   22325.36597483 -.00000008  00000+0  00000+0 0  9994
2 40080   0.0501 354.2539 0002551 288.5568  77.1686  5.00115507152643
O3B FM6                 
1 40081U 14038C   22325.39236643 -.00000008  00000+0  00000+0 0  9996
2 40081   0.0488 359.3965 0002789 241.7710 118.8123  5.00115299152603
O3B FM8                 
1 40082U 14038D   22325.24635882 -.00000008  00000+0  00000+0 0  9999
2 40082   0.0459 357.8853 0002669 240.9683 121.1279  5.00115676152718
O3B FM10                
1 40348U 14083A   22325.47237379 -.00000008  00000+0  00000+0 0  9998
2 40348   0.0524   8.9268 0002704 232.2798 118.7741  5.00115137144675
O3B FM11                
1 40349U 14083B   22322.68732999 -.00000013  00000+0  00000+0 0  9993
2 40349   0.0561   5.8527 0002858 246.7010 107.4218  5.00115414144557
O3B FM12                
1 40350U 14083C   22325.31313221 -.00000008  00000+0  00000+0 0  9995
2 40350   0.0550   5.5355 0002886 237.3677 117.0751  5.00115261144693
O3B FM9                 
1 40351U 14083D   22325.33991224 -.00000008  00000+0  00000+0 0  9993
2 40351   0.0570   5.2552 0002701 237.2211 117.5040  5.00116085144849
DIAMOND RED             
1 42783U 17036U   22325.08801778  .00008674  00000+0  29612-3 0  9991
2 42783  97.1822   0.6127 0011203 126.0233 234.2049 15.30491316300870
DIAMOND GREEN           
1 42785U 17036W   22325.08733464  .00009528  00000+0  32410-3 0  9998
2 42785  97.1824   0.6802 0011074 127.2986 232.9266 15.30580345300943
DIAMOND BLUE            
1 42786U 17036X   22325.54451325  .00010708  00000+0  36411-3 0  9990
2 42786  97.1823   1.1137 0011130 125.9219 234.3057 15.30560936301014
LEO VANTAGE 1           
1 43113U 18004C   22325.23512950  .00001876  00000+0  15374-3 0  9990
2 43113  99.2439  62.0460 0399597  80.1611 284.4448 14.54630259247025
O3B FM15                
1 43231U 18024A   22325.40585623 -.00000008  00000+0  00000+0 0  9992
2 43231   0.0502  12.0221 0003048 230.2934 117.6613  5.00116112 85801
O3B FM16                
1 43232U 18024B   22325.45926663 -.00000008  00000+0  00000+0 0  9991
2 43232   0.0487  16.5816 0003037 226.3276 117.0676  5.00115907 85721
O3B FM14                
1 43233U 18024C   22325.29908834 -.00000008  00000+0  00000+0 0  9994
2 43233   0.0477  17.8436 0002938 228.0358 114.0975  5.00115347 85718
O3B FM13                
1 43234U 18024D   22325.15272921 -.00000008  00000+0  00000+0 0  9991
2 43234   0.0600  10.9317 0003867 233.1407 115.8955  5.00115196 85824
O3B FM20                
1 44112U 19020A   22325.32578148 -.00000008  00000+0  00000+0 0  9993
2 44112   0.0518   8.6927 0003320 238.5213 112.7587  5.00115432 66343
O3B FM19                
1 44113U 19020B   22325.15274214 -.00000008  00000+0  00000+0 0  9992
2 44113   0.0750  11.6059 0002167 256.4673  91.9097  5.00114975 66197
O3B FM17                
1 44114U 19020C   22325.43307240 -.00000008  00000+0  00000+0 0  9990
2 44114   0.0321   9.2169 0003170 232.8355 117.9233  5.00115604 66299
O3B FM18                
1 44115U 19020D   22325.17967794 -.00000008  00000+0  00000+0 0  9998
2 44115   0.0522   8.6995 0002952 231.8334 119.4454  5.00115773 66419
SALSAT                  
1 46495U 20068K   22325.42061278  .00002064  00000+0  14816-3 0  9992
2 46495  97.7457 266.9549 0018113 103.5421 256.7825 15.05330697117799
ISS (ZARYA)             
1 25544U 98067A   22325.70530266  .00009606  00000+0  17523-3 0  9994
2 25544  51.6438 276.2646 0007024  98.7292 323.8398 15.50125202369616
AEROCUBE 12A            
1 43556U 18046C   22324.78545875  .00027013  00000+0  53331-3 0  9994
2 43556  51.6321 138.1973 0007949 236.7223 123.3003 15.46926919243440
AEROCUBE 12B            
1 43557U 18046D   22325.51087531  .00020051  00000+0  45330-3 0  9992
2 43557  51.6343 142.1956 0007776 234.3189 125.7074 15.43123328243404
LEMUR-2-VU              
1 43558U 18046E   22325.39470743  .00103473  00000+0  10821-2 0  9996
2 43558  51.6312 105.2995 0009042 266.1685  93.8276 15.63588485243934
LEMUR-2-ALEXANDER       
1 43559U 18046F   22325.47914142  .00166292  00000+0  12636-2 0  9996
2 43559  51.6349  99.9088 0008313 294.6109  65.4022 15.71222627243794
LEMUR-2-YUASA           
1 43560U 18046G   22325.41761558  .00163561  00000+0  13908-2 0  9992
2 43560  51.6367 103.9845 0008846 292.4276  67.5783 15.68515616243959
LEMUR-2-TOMHENDERSON    
1 43561U 18046H   22325.38893023  .00067521  00000+0  83879-3 0  9996
2 43561  51.6371 111.2510 0009148 263.0149  96.9803 15.59311833243410
ICS-EF (ISS DEB)        
1 45265U 98067RJ  22325.04406820  .00048950  00000+0  33904-3 0  9997
2 45265  51.6327 236.6328 0005961  99.0596 261.1077 15.73961771156190
ISS DEB                 
1 47853U 98067RZ  22325.25422186  .00013772  00000+0  19225-3 0  9992
2 47853  51.6405 267.4824 0001471 168.9914 191.1111 15.57180202 96319
MMSATS-1                
1 47976U 98067SJ  22325.36658887  .00045489  00000+0  38339-3 0  9996
2 47976  51.6373 252.1700 0003307 126.1027 331.7738 15.69342224 94800
CSS (TIANHE)            
1 48274U 21035A   22325.43849272  .00017236  00000+0  22061-3 0  9991
2 48274  41.4782 341.1363 0005786 288.0939 212.9927 15.58786653 89350
ISS DEB                 
1 48833U 98067SK  22325.16302852  .00562115  15812-3  86113-3 0  9999
2 48833  51.6220 235.7334 0006693 159.6847 200.4432 16.03723912 83869
ISS (NAUKA)             
1 49044U 21066A   22324.43010292  .00010100  00000+0  18398-3 0  9993
2 49044  51.6438 282.5846 0006965  94.1712  47.5689 15.50101142369417
FREGAT DEB              
1 49271U 11037PF  22323.27046353 -.00000628  00000+0 -13630-2 0  9999
2 49271  51.6912 169.1359 1037129   9.1642 352.6624 11.98860265 65676
LIGHT-1                 
1 51509U 98067TG  22325.50342287  .00142314  00000+0  74312-3 0  9999
2 51509  51.6384 253.2672 0009592  91.6657 268.5443 15.79862420 45516
KITSUNE                 
1 52148U 98067TK  22325.37241032  .00056427  00000+0  53838-3 0  9999
2 52148  51.6385 265.7329 0006872 113.1572 341.0837 15.66176319 37727
PROGRESS-MS 20          
1 52795U 22059A   22324.43010292  .00010100  00000+0  18398-3 0  9993
2 52795  51.6438 282.5846 0006965  94.1712  47.5689 15.50101142369414
SHENZHOU 14             
1 52797U 22060A   22324.39096951  .00019188  00000+0  24531-3 0  9999
2 52797  41.4787 347.4910 0005899 282.2033  93.0027 15.58758133 89196
ISS DEB                 
1 52952U 98067TP  22325.23969973  .00312516  00000+0  15130-2 0  9994
2 52952  51.6320 268.0213 0010953 122.1259 238.0807 15.81010737 22065
CSS (WENTIAN)           
1 53239U 22085A   22324.39096951  .00019188  00000+0  24531-3 0  9998
2 53239  41.4787 347.4910 0005899 282.2033  93.0027 15.58758133 89198
1998-067TQ              
1 53305U 98067TQ  22325.28070236  .00093040  00000+0  96478-3 0  9990
2 53305  51.6378 273.5692 0008380 105.1245 255.0677 15.63858523 19096
YUZGU 8                 
1 53306U 98067TR  22325.33923193  .00118936  00000+0  11014-2 0  9990
2 53306  51.6367 272.4578 0008685 106.7850 253.4099 15.66583224 19112
1998-067TS              
1 53307U 98067TS  22325.40473854  .00114669  00000+0  10674-2 0  9993
2 53307  51.6359 272.1370 0008784 105.5105 254.6861 15.66470668 19152
YUZGU 9 (RS3S)          
1 53308U 98067TT  22325.34754995  .00112510  00000+0  10617-2 0  9995
2 53308  51.6366 272.5097 0008578 105.7053 254.4889 15.66142314 19170
YUZGU 7 (RS1S)          
1 53309U 98067TU  22325.39496354  .00116544  00000+0  10750-2 0  9992
2 53309  51.6362 272.0709 0008909 109.7981 250.3976 15.66688012 19132
YUZGU 11 (RS5S)         
1 53310U 98067TV  22325.34634650  .00110867  00000+0  10459-2 0  9990
2 53310  51.6363 272.5010 0008675 108.6912 251.5026 15.66155060 19150
YUZGU 12 (RS6S)         
1 53311U 98067TW  22325.44160421  .00121517  00000+0  10949-2 0  9990
2 53311  51.6362 271.6314 0008674 104.7831 255.4127 15.67250589 19195
TSIOLKOVSKY-RYAZAN 1 (*)
1 53312U 98067TX  22325.39517853  .00108922  00000+0  10180-2 0  9992
2 53312  51.6366 272.0782 0008948 110.4776 249.7181 15.66392373 19126
TSIOLKOVSKY-RYAZAN 2 (*)
1 53313U 98067TY  22325.39221338  .00114104  00000+0  10569-2 0  9993
2 53313  51.6372 272.0591 0008513 110.9110 249.2797 15.66598571 19178
YUZGU 10 (RS4S)         
1 53321U 98067TZ  22325.34055775  .00113394  00000+0  10579-2 0  9998
2 53321  51.6363 272.4625 0008743 107.5151 252.6801 15.66420776 19165
YUZGU UA                
1 53322U 98067UA  22325.39752439  .00118739  00000+0  10901-2 0  9992
2 53322  51.6360 272.0919 0008783 107.0599 253.1360 15.66797288 19127
HSU-SAT1                
1 53462U 98067UB  22325.30822005  .00062613  00000+0  73686-3 0  9994
2 53462  51.6371 274.4946 0009798 124.5958 235.5961 15.60754630 15710
FUTABA                  
1 53463U 98067UC  22325.06042012  .00071088  00000+0  76370-3 0  9999
2 53463  51.6359 275.0855 0010360 122.0495 238.1507 15.63047907 15685
TUMNANOSAT              
1 53464U 98067UD  22325.26050795  .00110763  00000+0  10709-2 0  9996
2 53464  51.6362 273.4189 0011143 124.4861 235.7189 15.65511972 15729
1998-067UE              
1 53767U 98067UE  22325.30787717  .00044824  00000+0  60287-3 0  9999
2 53767  51.6401 276.0072 0005823 132.7461 227.4021 15.57404279 11816
BEAVERCUBE              
1 53768U 98067UF  22325.24912233  .00045378  00000+0  61076-3 0  9998
2 53768  51.6389 276.3592 0004814 114.8953 245.2540 15.57384825 11816
CLICK-A                 
1 53769U 98067UG  22325.25907739  .00087029  00000+0  10344-2 0  9995
2 53769  51.6451 275.6986 0005995 124.4109 235.7452 15.60391873 11829
